LEO EXPRESS 1           
1 58301U 23174AX  26068.76789509  .00017303  00000+0  49741-3 0  9998
2 58301  97.5222 152.4092 0078735 115.9210 245.0174 15.32756831129655
STARLINK-34077          
1 64009U 25101R   26068.13798973  .00033147  00000+0  12078-2 0  9994
2 64009  43.0039   0.8363 0001216 287.6209  72.4509 15.27604249 46977
